E-ST@R-II               
1 41459U 16025D   21283.50985171  .00003476  00000-0  16845-3 0  9996
2 41459  98.1587  66.7348 0158844  35.1189 326.0378 15.08826488299766
AAUSAT 4                
1 41460U 16025E   21283.35935743  .00004573  00000-0  20921-3 0  9990
2 41460  98.1579  71.0547 0144300  17.5247 343.0916 15.12231856300078
BEESAT-4                
1 41619U 16040W   21283.42202072  .00006350  00000-0  24791-3 0  9997
2 41619  97.2561 336.2571 0008718 286.9690  73.0593 15.26210625282542
CANX-7                  
1 41788U 16059F   21283.33473627  .00031660  00000-0  32217-2 0  9993
2 41788  98.2497  33.1290 0026637 183.9942 176.0571 14.90405975270951
RAVAN                   
1 41849U 16067B   21283.33307333  .00001201  00000-0  10352-3 0  9995
2 41849  97.9776  48.7547 0008306  76.6893 283.5255 14.99268063268503
CELTEE 1                
1 41850U 16067C   21283.27885376  .00001210  00000-0  10884-3 0  9998
2 41850  97.9678  44.7864 0010097  92.4199 267.8178 14.97578360268308
OPTICUBE 04             
1 41851U 16067D   21283.30983333  .00000182  00000-0  21014-4 0  9990
2 41851  97.9675  44.1203 0010295  91.6571 268.5830 14.97199119268272
AEROCUBE 8D             
1 41852U 16067E   21283.30574631  .00000895  00000-0  82281-4 0  9992
2 41852  97.9674  44.0120 0011134  92.0192 268.2304 14.97365364268254
AEROCUBE 8C             
1 41853U 16067F   21283.28148989  .00001561  00000-0  13974-3 0  9996
2 41853  97.9659  43.8405 0011443  95.6103 264.6423 14.97324354268240
PROMETHEUS 2-1          
1 41854U 16067G   21283.31485393  .00001144  00000-0  10229-3 0  9991
2 41854  97.9677  44.5950 0011389  90.7568 269.4958 14.97897213268283
PROMETHEUS 2-3          
1 41855U 16067H   21283.31096940  .00001291  00000-0  11468-3 0  9997
2 41855  97.9684  44.6511 0011795  91.1713 269.0860 14.97918117268289
INS-1B                  
1 41954U 17008G   21283.18330033  .00004508  00000-0  17337-3 0  9997
2 41954  97.2953 343.7424 0009894  53.7025 306.5127 15.26857198258516
BGUSAT                  
1 41999U 17008BD  21283.42422631  .00011660  00000-0  38874-3 0  9995
2 41999  97.3138 351.5099 0008210  55.1575 305.0438 15.31210526258291
DIDO-2                  
1 42000U 17008BE  21283.14357090  .00002622  00000-0  10529-3 0  9999
2 42000  97.2951 343.7874 0009702  71.2905 288.9386 15.25796272257878
PEASSS                  
1 42015U 17008BV  21283.41222681  .00005557  00000-0  20914-3 0  9991
2 42015  97.2996 346.8486 0007559  71.0518 289.1540 15.27495303258567
AL-FARABI 1             
1 42016U 17008BW  21283.42273997  .00007317  00000-0  26303-3 0  9993
2 42016  97.3048 348.9396 0007249  69.1997 291.0019 15.28900417258791
NAYIF-1 (EO-88)         
1 42017U 17008BX  21283.45168473  .00007508  00000-0  26932-3 0  9999
2 42017  97.3041 348.9745 0007283  68.4406 291.7610 15.28960448258826
UCLSAT                  
1 42765U 17036A   21283.40688866  .00005710  00000-0  22801-3 0  9992
2 42765  97.2366 329.2872 0012147 126.3161 233.9201 15.25461316239690
LITUANICASAT-2          
1 42768U 17036D   21283.10244365  .00007128  00000-0  26795-3 0  9995
2 42768  97.2446 330.1900 0014942 117.3115 242.9648 15.27352268238960
AALTO-1                 
1 42775U 17036L   21283.34361674  .00003372  00000-0  14566-3 0  9992
2 42775  97.2346 325.4686 0014865 125.9093 234.3526 15.23055966238689
URSA MAIOR              
1 42776U 17036M   21283.39054078  .00003763  00000-0  16078-3 0  9999
2 42776  97.2358 326.0487 0014640 125.1021 235.1591 15.23360931238719
COMPASS 2               
1 42777U 17036N   21283.39134690  .00007659  00000-0  29520-3 0  9993
2 42777  97.2430 330.4858 0013074 117.5286 242.7283 15.26522620238945
DIAMOND RED             
1 42783U 17036U   21283.41094474  .00004150  00000-0  17208-3 0  9991
2 42783  97.2373 327.9547 0012883 130.4298 229.8066 15.24340456238823
PEGASUS                 
1 42784U 17036V   21283.09232432  .00003561  00000-0  14531-3 0  9995
2 42784  97.2375 328.4433 0012684 129.3224 230.9140 15.24981732238825
DIAMOND GREEN           
1 42785U 17036W   21283.08174691  .00003150  00000-0  13139-3 0  9994
2 42785  97.2376 327.6891 0012793 131.9641 228.2689 15.24314962238844
DIAMOND BLUE            
1 42786U 17036X   21283.08086467  .00003095  00000-0  12914-3 0  9996
2 42786  97.2376 327.6806 0012708 132.3911 227.8405 15.24319043238848
NUDTSAT                 
1 42787U 17036Y   21283.59829236  .00005739  00000-0  21730-3 0  9995
2 42787  97.2419 331.7437 0011639 120.0406 240.1985 15.27239853238909
SUCHAI                  
1 42788U 17036Z   21283.35603278  .00006217  00000-0  24479-3 0  9991
2 42788  97.2385 329.8456 0012266 125.4840 234.7545 15.25893964239009
SKCUBE                  
1 42789U 17036AA  21283.40678416  .00005867  00000-0  23339-3 0  9998
2 42789  97.2378 329.5485 0012172 125.9753 234.2617 15.25578090238919
VZLUSAT-1               
1 42790U 17036AB  21283.39807417  .00008047  00000-0  30387-3 0  9997
2 42790  97.2410 331.5366 0011553 121.2046 239.0327 15.27202365239020
ROBUSTA-1B              
1 42792U 17036AD  21283.35660596  .00006136  00000-0  24199-3 0  9991
2 42792  97.2381 329.9270 0011776 125.8152 234.4183 15.25853061238941
CICERO 6                
1 42793U 17036AE  21283.37671652  .00003859  00000-0  15948-3 0  9990
2 42793  97.2354 328.5119 0011170 129.7742 230.4481 15.24518370238942
D-SAT                   
1 42794U 17036AF  21283.27014282  .00000918  00000-0  83935-4 0  9995
2 42794  97.4588 297.0530 0124622 201.5175 158.0782 14.91712227234177
CORVUS BC2              
1 42846U 17042X   21283.42454041  .00000499  00000-0  53803-4 0  9993
2 42846  97.4541 149.4584 0011004 110.3631 249.8772 14.92378241230984
CORVUS BC1              
1 42847U 17042Y   21283.38770735  .00000725  00000-0  75731-4 0  9996
2 42847  97.4544 149.6835 0010638 109.6055 250.6315 14.92475290230987
MIRATA                  
1 43015U 17073C   21283.52610349  .00003386  00000-0  26165-3 0  9990
2 43015  97.6906 183.3723 0246606 280.6591  76.6941 14.81219595210241
MAKERSAT 0              
1 43016U 17073D   21283.48763700  .00002342  00000-0  18421-3 0  9993
2 43016  97.6935 183.2819 0250864 283.4701  73.8671 14.80332201210196
AEROCUBE 7B (OCSD B)    
1 43042U 17071F   21283.52275264  .00018392  00000-0  31802-3 0  9998
2 43042  51.6359 220.1845 0003441  38.7357 321.3879 15.51003142216678
AEROCUBE 7C (OCSD C)    
1 43043U 17071G   21283.11372095  .00018585  00000-0  32471-3 0  9991
2 43043  51.6351 222.6935 0003691  38.4516 321.6735 15.50701036216578
CHEFSAT                 
1 43044U 17071H   21283.28998743  .00092867  00000-0  75633-3 0  9996
2 43044  51.6311 174.0488 0002922 134.6023 225.5213 15.69875532217247
ASGARDIA 1              
1 43049U 17071N   21283.39257707  .00020968  00000-0  36956-3 0  9999
2 43049  51.6370 220.9584 0002505  69.5005 290.6252 15.50369109216623
ISARA                   
1 43050U 17071P   21283.27313790  .00056335  00000-0  58973-3 0  9993
2 43050  51.6293 184.9394 0002755 130.5976 229.5259 15.63863789217097
PROPCUBE 2 (FAUNA)      
1 43052U 17071R   21283.21644949  .00022233  00000-0  37494-3 0  9997
2 43052  51.6353 217.5206 0002338  71.9481 288.1763 15.51577569216643
CORVUS BC3              
1 43118U 18004H   21283.41924002  .00003649  00000-0  15048-3 0  9991
2 43118  97.3931 354.5250 0010572 156.6114 203.5607 15.24649055208097
MICROMAS-2A             
1 43131U 18004W   21283.45861420  .00009229  00000-0  33649-3 0  9991
2 43131  97.4025 358.6656 0009048 147.9133 212.2659 15.28352380208328
SPACEBEE-4              
1 43139U 18004AE  21283.49276571  .00010527  00000-0  35250-3 0  9993
2 43139  97.4099   1.5861 0008318 145.0895 215.0893 15.31099970208487
SPACEBEE-3              
1 43140U 18004AF  21283.44976015  .00019845  00000-0  61671-3 0  9998
2 43140  97.4138   3.4281 0007705 140.9492 219.2308 15.33353711208582
SPACEBEE-2              
1 43141U 18004AG  21283.47155181  .00021394  00000-0  64801-3 0  9995
2 43141  97.4158   4.1736 0007570 139.6773 220.5032 15.34153543208621
SPACEBEE-1              
1 43142U 18004AH  21283.45170397  .00024560  00000-0  72085-3 0  9991
2 43142  97.4170   4.8936 0007457 137.4700 222.7122 15.35122128208658
CICERO 7                
1 43143U 18004AJ  21283.48130980  .00009060  00000-0  33258-3 0  9996
2 43143  97.3997 358.6655 0007337 154.5769 205.5833 15.28148181208348
GOMX-4B                 
1 43196U 18015E   21283.35825495  .00001901  00000-0  78473-4 0  9999
2 43196  97.5013  56.4636 0017286 212.2824 147.7357 15.25171365205024
GOMX-4A                 
1 43197U 18015F   21283.65340343  .00002778  00000-0  11102-3 0  9995
2 43197  97.5003  57.1167 0017497 212.0853 205.6702 15.25851176205107
AEROCUBE 12A            
1 43556U 18046C   21283.52480630  .00004777  00000-0  16076-3 0  9994
2 43556  51.6394 314.5840 0006778 214.4979 145.5563 15.32644373180929
AEROCUBE 12B            
1 43557U 18046D   21283.34224513  .00004911  00000-0  16852-3 0  9993
2 43557  51.6405 317.8208 0006991 212.3934 147.6619 15.31942811180812
SURFSAT                 
1 43614U 18070B   21283.48120629  .00013143  00000-0  29203-3 0  9993
2 43614  93.0318 353.9853 0010858 277.3924  82.6099 15.43601623172405
CP7 (DAVE)              
1 43615U 18070C   21283.45727566  .00012082  00000-0  27169-3 0  9994
2 43615  93.0323 353.9153 0011092 277.8299  82.1698 15.43246719172384
ELFIN-B                 
1 43616U 18070D   21283.16955053  .00014181  00000-0  28029-3 0  9995
2 43616  93.0274 354.1480 0010590 272.8179  87.1868 15.47038836172499
ELFIN-A                 
1 43617U 18070E   21283.21898191  .00018555  00000-0  35846-3 0  9995
2 43617  93.0327 355.1310 0009991 268.5044  91.5071 15.47688439172527
CUBEBEL-1 (BSUSAT-1)    
1 43666U 18083E   21283.55751855  .00002790  00000-0  13309-3 0  9999
2 43666  97.4483 310.4640 0015755 123.9413   4.0606 15.19813571163496
